{
    "links": {
        "self": "http://www.neowsapp.com/rest/v1/neo/3759715?api_key=iIulBulltgU6a56xZRHN4H3l9WmuAYTsLGpBGhQ2"
    },
    "id": "3759715",
    "neo_reference_id": "3759715",
    "name": "(2016 SF1)",
    "designation": "2016 SF1",
    "nasa_jpl_url": "http://ssd.jpl.nasa.gov/sbdb.cgi?sstr=3759715",
    "absolute_magnitude_h": 24.7,
    "estimated_diameter": {
        "kilometers": {
            "estimated_diameter_min": 0.0305179233,
            "estimated_diameter_max": 0.0682401509
        },
        "meters": {
            "estimated_diameter_min": 30.5179232594,
            "estimated_diameter_max": 68.2401509401
        },
        "miles": {
            "estimated_diameter_min": 0.0189629525,
            "estimated_diameter_max": 0.0424024508
        },
        "feet": {
            "estimated_diameter_min": 100.1244233463,
            "estimated_diameter_max": 223.8850168104
        }
    },
    "is_potentially_hazardous_asteroid": false,
    "close_approach_data": [
        {
            "close_approach_date": "2016-09-10",
            "close_approach_date_full": "2016-Sep-10 06:51",
            "epoch_date_close_approach": 1473490260000,
            "relative_velocity": {
                "kilometers_per_second": "8.1854477763",
                "kilometers_per_hour": "29467.6119948502",
                "miles_per_hour": "18310.0281309113"
            },
            "miss_distance": {
                "astronomical": "0.0015770205",
                "lunar": "0.6134609745",
                "kilometers": "235918.907746335",
                "miles": "146593.211656023"
            },
            "orbiting_body": "Moon"
        },
        {
            "close_approach_date": "2016-09-10",
            "close_approach_date_full": "2016-Sep-10 14:32",
            "epoch_date_close_approach": 1473517920000,
            "relative_velocity": {
                "kilometers_per_second": "8.5881566428",
                "kilometers_per_hour": "30917.3639142075",
                "miles_per_hour": "19210.8475943585"
            },
            "miss_distance": {
                "astronomical": "0.0034069487",
                "lunar": "1.3253030443",
                "kilometers": "509672.268719269",
                "miles": "316695.6624091522"
            },
            "orbiting_body": "Earth"
        },
        {
            "close_approach_date": "2021-07-01",
            "close_approach_date_full": "2021-Jul-01 01:06",
            "epoch_date_close_approach": 1625101560000,
            "relative_velocity": {
                "kilometers_per_second": "19.6092855043",
                "kilometers_per_hour": "70593.4278153097",
                "miles_per_hour": "43864.0107444629"
            },
            "miss_distance": {
                "astronomical": "0.4508471878",
                "lunar": "175.3795560542",
                "kilometers": "67445778.990369986",
                "miles": "41908863.7247823668"
            },
            "orbiting_body": "Earth"
        }
    ],
    "orbital_data": {
        "orbit_id": "10",
        "orbit_determination_date": "2017-04-06 08:23:42",
        "first_observation_date": "2016-09-21",
        "last_observation_date": "2016-10-08",
        "data_arc_in_days": 17,
        "observations_used": 32,
        "orbit_uncertainty": "7",
        "minimum_orbit_intersection": ".00269443",
        "jupiter_tisserand_invariant": "3.901",
        "epoch_osculation": "2459000.5",
        "eccentricity": ".4482296786770597",
        "semi_major_axis": "1.820260885009302",
        "inclination": "9.604261759871081",
        "ascending_node_longitude": "167.5322156899178",
        "orbital_period": "897.0132993106936",
        "perihelion_distance": "1.004365933413162",
        "perihelion_argument": "169.8691227011784",
        "aphelion_distance": "2.636155836605442",
        "perihelion_time": "2459427.078690205820",
        "mean_anomaly": "188.800388364248",
        "mean_motion": ".4013318423223386",
        "equinox": "J2000",
        "orbit_class": {
            "orbit_class_type": "APO",
            "orbit_class_description": "Near-Earth asteroid orbits which cross the Earth’s orbit similar to that of 1862 Apollo",
            "orbit_class_range": "a (semi-major axis) > 1.0 AU; q (perihelion) < 1.017 AU"
        }
    },
    "is_sentry_object": false
}